[{"OBJECT_NAME":"COSMOS 2251 DEB","OBJECT_ID":"1993-036HY","EPOCH":"2026-04-05T05:49:36.242112","MEAN_MOTION":14.35060025,"ECCENTRICITY":0.00541222,"INCLINATION":74.0521,"RA_OF_ASC_NODE":202.6318,"ARG_OF_PERICENTER":225.9604,"MEAN_ANOMALY":133.7084,"EPHEMERIS_TYPE":0,"CLASSIFICATION_TYPE":"U","NORAD_CAT_ID":34037,"ELEMENT_SET_NO":999,"REV_AT_EPOCH":89345,"BSTAR":0.0007430894,"MEAN_MOTION_DOT":2.129e-5,"MEAN_MOTION_DDOT":0},{"OBJECT_NAME":"COSMOS 2251 DEB","OBJECT_ID":"1993-036JB","EPOCH":"2026-04-05T03:01:04.919232","MEAN_MOTION":13.68892918,"ECCENTRICITY":0.0339122,"INCLINATION":73.9568,"RA_OF_ASC_NODE":238.4143,"ARG_OF_PERICENTER":169.6404,"MEAN_ANOMALY":191.1941,"EPHEMERIS_TYPE":0,"CLASSIFICATION_TYPE":"U","NORAD_CAT_ID":34040,"ELEMENT_SET_NO":999,"REV_AT_EPOCH":85151,"BSTAR":0.0022216209,"MEAN_MOTION_DOT":2.844e-5,"MEAN_MOTION_DDOT":0},{"OBJECT_NAME":"COSMOS 2251 DEB","OBJECT_ID":"1993-036JG","EPOCH":"2026-04-05T04:03:56.931552","MEAN_MOTION":14.34135826,"ECCENTRICITY":0.00261344,"INCLINATION":74.0362,"RA_OF_ASC_NODE":103.2766,"ARG_OF_PERICENTER":164.3811,"MEAN_ANOMALY":270.2145,"EPHEMERIS_TYPE":0,"CLASSIFICATION_TYPE":"U","NORAD_CAT_ID":34045,"ELEMENT_SET_NO":999,"REV_AT_EPOCH":89659,"BSTAR":9.2143341e-5,"MEAN_MOTION_DOT":2.33e-6,"MEAN_MOTION_DDOT":0},{"OBJECT_NAME":"COSMOS 2251 DEB","OBJECT_ID":"1993-036JH","EPOCH":"2026-04-05T04:26:50.142048","MEAN_MOTION":14.4763162,"ECCENTRICITY":0.00779394,"INCLINATION":74.0378,"RA_OF_ASC_NODE":158.4516,"ARG_OF_PERICENTER":216.2865,"MEAN_ANOMALY":174.6257,"EPHEMERIS_TYPE":0,"CLASSIFICATION_TYPE":"U","NORAD_CAT_ID":34046,"ELEMENT_SET_NO":999,"REV_AT_EPOCH":89467,"BSTAR":0.0014476689,"MEAN_MOTION_DOT":5.518e-5,"MEAN_MOTION_DDOT":0},{"OBJECT_NAME":"COSMOS 2251 DEB","OBJECT_ID":"1993-036JM","EPOCH":"2026-04-05T05:48:38.760192","MEAN_MOTION":13.96540772,"ECCENTRICITY":0.02174688,"INCLINATION":74.0886,"RA_OF_ASC_NODE":175.2843,"ARG_OF_PERICENTER":212.9297,"MEAN_ANOMALY":177.5936,"EPHEMERIS_TYPE":0,"CLASSIFICATION_TYPE":"U","NORAD_CAT_ID":34050,"ELEMENT_SET_NO":999,"REV_AT_EPOCH":87016,"BSTAR":0.0011370685,"MEAN_MOTION_DOT":1.896e-5,"MEAN_MOTION_DDOT":0},{"OBJECT_NAME":"COSMOS 2251 DEB","OBJECT_ID":"1993-036JQ","EPOCH":"2026-04-05T06:34:40.320192","MEAN_MOTION":13.49307966,"ECCENTRICITY":0.04243215,"INCLINATION":73.8437,"RA_OF_ASC_NODE":59.1655,"ARG_OF_PERICENTER":189.1385,"MEAN_ANOMALY":170.1825,"EPHEMERIS_TYPE":0,"CLASSIFICATION_TYPE":"U","NORAD_CAT_ID":34053,"ELEMENT_SET_NO":999,"REV_AT_EPOCH":84215,"BSTAR":0.00036357577,"MEAN_MOTION_DOT":3.78e-6,"MEAN_MOTION_DDOT":0},{"OBJECT_NAME":"COSMOS 2251 DEB","OBJECT_ID":"1993-036JT","EPOCH":"2026-04-04T19:46:29.805312","MEAN_MOTION":14.21418044,"ECCENTRICITY":0.0124819,"INCLINATION":74.0589,"RA_OF_ASC_NODE":234.0161,"ARG_OF_PERICENTER":255.1418,"MEAN_ANOMALY":269.2454,"EPHEMERIS_TYPE":0,"CLASSIFICATION_TYPE":"U","NORAD_CAT_ID":34056,"ELEMENT_SET_NO":999,"REV_AT_EPOCH":88017,"BSTAR":0.0019502354,"MEAN_MOTION_DOT":4.588e-5,"MEAN_MOTION_DDOT":0},{"OBJECT_NAME":"COSMOS 2251 DEB","OBJECT_ID":"1993-036JV","EPOCH":"2026-04-05T04:15:03.913632","MEAN_MOTION":13.56229044,"ECCENTRICITY":0.03773714,"INCLINATION":73.9365,"RA_OF_ASC_NODE":354.2233,"ARG_OF_PERICENTER":327.789,"MEAN_ANOMALY":186.6865,"EPHEMERIS_TYPE":0,"CLASSIFICATION_TYPE":"U","NORAD_CAT_ID":34058,"ELEMENT_SET_NO":999,"REV_AT_EPOCH":84680,"BSTAR":0.00044704435,"MEAN_MOTION_DOT":4.73e-6,"MEAN_MOTION_DDOT":0},{"OBJECT_NAME":"COSMOS 2251 DEB","OBJECT_ID":"1993-036JW","EPOCH":"2026-04-05T02:57:14.249376","MEAN_MOTION":14.53738666,"ECCENTRICITY":0.00165467,"INCLINATION":74.0396,"RA_OF_ASC_NODE":332.2389,"ARG_OF_PERICENTER":22.1273,"MEAN_ANOMALY":131.4698,"EPHEMERIS_TYPE":0,"CLASSIFICATION_TYPE":"U","NORAD_CAT_ID":34059,"ELEMENT_SET_NO":999,"REV_AT_EPOCH":90106,"BSTAR":0.00075351946,"MEAN_MOTION_DOT":3.137e-5,"MEAN_MOTION_DDOT":0},{"OBJECT_NAME":"COSMOS 2251 DEB","OBJECT_ID":"1993-036JY","EPOCH":"2026-04-05T07:18:27.073728","MEAN_MOTION":14.40623628,"ECCENTRICITY":0.00189836,"INCLINATION":74.0393,"RA_OF_ASC_NODE":53.4234,"ARG_OF_PERICENTER":109.5287,"MEAN_ANOMALY":41.3065,"EPHEMERIS_TYPE":0,"CLASSIFICATION_TYPE":"U","NORAD_CAT_ID":34061,"ELEMENT_SET_NO":999,"REV_AT_EPOCH":89815,"BSTAR":0.00045143413,"MEAN_MOTION_DOT":1.417e-5,"MEAN_MOTION_DDOT":0},{"OBJECT_NAME":"COSMOS 2251 DEB","OBJECT_ID":"1993-036JZ","EPOCH":"2026-04-04T23:00:56.095776","MEAN_MOTION":14.82817169,"ECCENTRICITY":0.00683382,"INCLINATION":74.0259,"RA_OF_ASC_NODE":274.5885,"ARG_OF_PERICENTER":324.5567,"MEAN_ANOMALY":188.538,"EPHEMERIS_TYPE":0,"CLASSIFICATION_TYPE":"U","NORAD_CAT_ID":34062,"ELEMENT_SET_NO":999,"REV_AT_EPOCH":90271,"BSTAR":0.0017926902,"MEAN_MOTION_DOT":0.0001511,"MEAN_MOTION_DDOT":0},{"OBJECT_NAME":"COSMOS 2251 DEB","OBJECT_ID":"1993-036KB","EPOCH":"2026-04-05T04:33:39.252960","MEAN_MOTION":14.42777722,"ECCENTRICITY":0.00201333,"INCLINATION":74.033,"RA_OF_ASC_NODE":60.3196,"ARG_OF_PERICENTER":106.4356,"MEAN_ANOMALY":269.5847,"EPHEMERIS_TYPE":0,"CLASSIFICATION_TYPE":"U","NORAD_CAT_ID":34064,"ELEMENT_SET_NO":999,"REV_AT_EPOCH":89778,"BSTAR":0.00077917183,"MEAN_MOTION_DOT":2.578e-5,"MEAN_MOTION_DDOT":0},{"OBJECT_NAME":"COSMOS 2251 DEB","OBJECT_ID":"1993-036KC","EPOCH":"2026-04-05T06:50:30.438528","MEAN_MOTION":14.38191492,"ECCENTRICITY":0.00155438,"INCLINATION":74.0362,"RA_OF_ASC_NODE":48.95,"ARG_OF_PERICENTER":127.0131,"MEAN_ANOMALY":24.3949,"EPHEMERIS_TYPE":0,"CLASSIFICATION_TYPE":"U","NORAD_CAT_ID":34065,"ELEMENT_SET_NO":999,"REV_AT_EPOCH":89837,"BSTAR":0.00021568112,"MEAN_MOTION_DOT":6.3e-6,"MEAN_MOTION_DDOT":0},{"OBJECT_NAME":"COSMOS 2251 DEB","OBJECT_ID":"1993-036KH","EPOCH":"2026-04-04T20:54:14.687712","MEAN_MOTION":14.81102765,"ECCENTRICITY":0.00179089,"INCLINATION":73.9986,"RA_OF_ASC_NODE":253.254,"ARG_OF_PERICENTER":341.4792,"MEAN_ANOMALY":175.3205,"EPHEMERIS_TYPE":0,"CLASSIFICATION_TYPE":"U","NORAD_CAT_ID":34070,"ELEMENT_SET_NO":999,"REV_AT_EPOCH":90283,"BSTAR":0.0023920561,"MEAN_MOTION_DOT":0.00018647,"MEAN_MOTION_DDOT":0},{"OBJECT_NAME":"COSMOS 2251 DEB","OBJECT_ID":"1993-036KK","EPOCH":"2026-04-05T07:22:35.487552","MEAN_MOTION":14.58995239,"ECCENTRICITY":0.00429397,"INCLINATION":74.0582,"RA_OF_ASC_NODE":188.2071,"ARG_OF_PERICENTER":160.1108,"MEAN_ANOMALY":256.5185,"EPHEMERIS_TYPE":0,"CLASSIFICATION_TYPE":"U","NORAD_CAT_ID":34114,"ELEMENT_SET_NO":999,"REV_AT_EPOCH":89456,"BSTAR":0.0024894371,"MEAN_MOTION_DOT":0.00011829,"MEAN_MOTION_DDOT":0},{"OBJECT_NAME":"COSMOS 2251 DEB","OBJECT_ID":"1993-036KL","EPOCH":"2026-04-05T05:02:06.318240","MEAN_MOTION":14.81646521,"ECCENTRICITY":0.0031251,"INCLINATION":74.0087,"RA_OF_ASC_NODE":17.8289,"ARG_OF_PERICENTER":176.08,"MEAN_ANOMALY":184.0628,"EPHEMERIS_TYPE":0,"CLASSIFICATION_TYPE":"U","NORAD_CAT_ID":34115,"ELEMENT_SET_NO":999,"REV_AT_EPOCH":91091,"BSTAR":0.0013124164,"MEAN_MOTION_DOT":0.00010395,"MEAN_MOTION_DDOT":0}]
