COSMOS 2251 DEB         
1 34037U 93036HY  26095.24278058  .00002129  00000+0  74309-3 0  9995
2 34037  74.0521 202.6318 0054122 225.9604 133.7084 14.35060025893453
COSMOS 2251 DEB         
1 34040U 93036JB  26095.12575138  .00002844  00000+0  22216-2 0  9998
2 34040  73.9568 238.4143 0339122 169.6404 191.1941 13.68892918851517
COSMOS 2251 DEB         
1 34045U 93036JG  26095.16940893  .00000233  00000+0  92143-4 0  9999
2 34045  74.0362 103.2766 0026134 164.3811 270.2145 14.34135826896590
COSMOS 2251 DEB         
1 34046U 93036JH  26095.18530257  .00005518  00000+0  14477-2 0  9994
2 34046  74.0378 158.4516 0077939 216.2865 174.6257 14.47631620894673
COSMOS 2251 DEB         
1 34050U 93036JM  26095.24211528  .00001896  00000+0  11371-2 0  9998
2 34050  74.0886 175.2843 0217468 212.9297 177.5936 13.96540772870161
COSMOS 2251 DEB         
1 34053U 93036JQ  26095.27407778  .00000378  00000+0  36358-3 0  9995
2 34053  73.8437  59.1655 0424321 189.1385 170.1825 13.49307966842153
COSMOS 2251 DEB         
1 34056U 93036JT  26094.82395608  .00004588  00000+0  19502-2 0  9994
2 34056  74.0589 234.0161 0124819 255.1418 269.2454 14.21418044880176
COSMOS 2251 DEB         
1 34058U 93036JV  26095.17712863  .00000473  00000+0  44704-3 0  9993
2 34058  73.9365 354.2233 0377371 327.7890 186.6865 13.56229044846803
COSMOS 2251 DEB         
1 34059U 93036JW  26095.12308159  .00003137  00000+0  75352-3 0  9991
2 34059  74.0396 332.2389 0016546  22.1273 131.4698 14.53738666901068
COSMOS 2251 DEB         
1 34061U 93036JY  26095.30448002  .00001417  00000+0  45143-3 0  9990
2 34061  74.0393  53.4234 0018983 109.5287  41.3065 14.40623628898150
COSMOS 2251 DEB         
1 34062U 93036JZ  26094.95898259  .00015110  00000+0  17927-2 0  9997
2 34062  74.0259 274.5885 0068338 324.5567 188.5380 14.82817169902712
COSMOS 2251 DEB         
1 34064U 93036KB  26095.19003765  .00002578  00000+0  77917-3 0  9996
2 34064  74.0330  60.3196 0020133 106.4356 269.5847 14.42777722897788
COSMOS 2251 DEB         
1 34065U 93036KC  26095.28507452  .00000630  00000+0  21568-3 0  9997
2 34065  74.0362  48.9500 0015543 127.0131  24.3949 14.38191492898379
COSMOS 2251 DEB         
1 34070U 93036KH  26094.87100333  .00018647  00000+0  23921-2 0  9995
2 34070  73.9986 253.2540 0017908 341.4792 175.3205 14.81102765902834
COSMOS 2251 DEB         
1 34114U 93036KK  26095.30735518  .00011829  00000+0  24894-2 0  9997
2 34114  74.0582 188.2071 0042939 160.1108 256.5185 14.58995239894561
COSMOS 2251 DEB         
1 34115U 93036KL  26095.20979535  .00010395  00000+0  13124-2 0  9997
2 34115  74.0087  17.8289 0031251 176.0800 184.0628 14.81646521910918
